PERSEUS-M1              
1 40039U 14033AF  26154.32094942  .00002550  00000+0  23505-3 0  9997
2 40039  97.9640  98.2263 0011135 352.1450   7.9594 14.95583258648567
POLYITAN-1              
1 40042U 14033AJ  26154.60616946  .00019716  00000+0  62456-3 0  9996
2 40042  98.0950 179.5873 0007535 181.9734 178.1478 15.32758052651518
TIGRISAT                
1 40043U 14033AK  26154.30391447  .00002863  00000+0  33356-3 0  9992
2 40043  97.7820 304.6356 0050593 119.5145 241.1129 14.85102537643561
AEROCUBE 6A             
1 40045U 14033AM  26154.93166258  .00006356  00000+0  53535-3 0  9995
2 40045  97.7216 322.0234 0039358  61.3448 299.1723 14.97953444644633
AEROCUBE 6B             
1 40046U 14033AN  26153.01160366  .00007828  00000+0  63414-3 0  9990
2 40046  97.7203 319.8803 0039277  60.1291 300.3825 14.99378582644486
CANX-4                  
1 40055U 14034C   26154.64168015  .00001125  00000+0  15162-3 0  9991
2 40055  98.3136  29.4566 0013937  57.9820 302.2744 14.81238223642527
CANX-5                  
1 40056U 14034D   26154.70782113  .00001178  00000+0  15835-3 0  9995
2 40056  98.3139  29.5679 0013937  57.8696 302.3866 14.81255741633347
UKUBE-1                 
1 40074U 14037F   26154.54849194  .00010176  00000+0  57523-3 0  9991
2 40074  98.4235 156.3901 0001646 150.7111 209.4210 15.13321645646494
BRITE-PL2 (HEWELIUSZ)   
1 40119U 14049B   26154.31365131  .00002604  00000+0  24600-3 0  9990
2 40119  97.9084 266.2083 0014815 151.1613 209.0429 14.94537783639373
AEROCUBE 5C             
1 40965U 15058B   26154.89407400  .00003180  00000+0  28496-3 0  9996
2 40965  64.7685 303.9418 0130280  68.4830 293.0112 14.91384448363672
AEROCUBE 7              
1 40966U 15058C   26154.79454420  .00004353  00000+0  35185-3 0  9996
2 40966  64.7636 286.7614 0120013  67.0259 294.3464 14.95631029363957
FOX-1A (AO-85)          
1 40967U 15058D   26154.87026376  .00003322  00000+0  30118-3 0  9997
2 40967  64.7762 320.3664 0129753  61.8150 299.5996 14.90897563111589
SINOD-D 1               
1 40968U 15058E   26154.64038366  .00004348  00000+0  35119-3 0  9990
2 40968  64.7764 301.3323 0118306  58.5158 302.7453 14.95808519114638
SNAP-3 ALICE            
1 40970U 15058G   26154.89141688  .00118340  00000+0  15722-2 0  9997
2 40970  64.7499 149.7844 0031981  19.1967 341.0374 15.56984744114813
LMRST-SAT               
1 40971U 15058H   26154.82219049  .00003279  00000+0  29922-3 0  9990
2 40971  64.7769 316.8280 0131450  63.8638 297.5928 14.90521737111563
SNAP-3 EDDIE            
1 40972U 15058J   26154.31410497  .00119843  00000+0  15292-2 0  9994
2 40972  64.7418 142.5953 0031911  23.5246 336.7350 15.58053367116862
PROPCUBE 3              
1 40973U 15058K   26154.55586732  .00003931  00000+0  32911-3 0  9995
2 40973  64.7695 295.1216 0123462  65.3437 296.0475 14.94172395112769
BISONSAT                
1 40974U 15058L   26154.51031273  .00010633  00000+0  52055-3 0  9995
2 40974  64.7588 217.8525 0078228  52.8809 307.9429 15.15903390113547
SNAP-3 JIMI             
1 40975U 15058M   26153.67657186  .00005808  00000+0  40231-3 0  9990
2 40975  64.7660 265.6777 0105549  61.3394 299.8287 15.02157822112042
PROPCUBE 1 (FLORA)      
1 40976U 15058N   26154.63051972  .00003319  00000+0  31462-3 0  9990
2 40976  64.7756 337.2500 0130197  66.2388 295.2315 14.89150106114241
SINOD-D 3               
1 40977U 15058P   26154.58530037  .00004590  00000+0  38863-3 0  9993
2 40977  64.7737 318.2902 0118700  63.5682 297.7553 14.93919640112722
HORYU-4                 
1 41340U 16012D   26152.43486084  .00260233  00000+0  10081-2 0  9992
2 41340  30.9850 193.7734 0002292 171.6706 188.3991 15.85409012568302
RAVAN                   
1 41849U 16067B   26154.90805753  .00054599  00000+0  86093-3 0  9991
2 41849  97.9900  42.9592 0006296  67.2892 292.9025 15.53352905525638
CELTEE 1                
1 41850U 16067C   26154.57667700  .00006337  00000+0  30174-3 0  9990
2 41850  98.0684  20.2158 0000637  73.6065 286.5238 15.19540482523818
OPTICUBE 04             
1 41851U 16067D   26154.55750612  .00002250  00000+0  14407-3 0  9995
2 41851  98.0706   6.1301 0016119 158.9050 201.2846 15.09597028523119
AEROCUBE 8D             
1 41852U 16067E   26154.56702366  .00008491  00000+0  35166-3 0  9998
2 41852  98.0693  23.7032 0003808 159.1321 201.0071 15.24196511523999
AEROCUBE 8C             
1 41853U 16067F   26154.59421791  .00008593  00000+0  35316-3 0  9992
2 41853  98.0565  20.9777 0006765 105.1120 255.0864 15.24440607523993
CORVUS BC2              
1 42846U 17042X   26154.44344097  .00003931  00000+0  27172-3 0  9998
2 42846  97.4063 316.3297 0013888 152.5583 207.6381 15.06206681484999
CORVUS BC1              
1 42847U 17042Y   26154.43960142  .00003659  00000+0  25207-3 0  9997
2 42847  97.4093 317.1310 0013343 130.6661 229.5729 15.06376199485024
MAKERSAT 0              
1 43016U 17073D   26154.59294423  .00024382  00000+0  66961-3 0  9997
2 43016  97.4651  37.0098 0106863 322.1681  37.2082 15.31566895464388
